{"fetched_at":"2026-07-13T18:16:36.647Z","source":"https://celestrak.org/NORAD/elements/gp.php?GROUP=spire&FORMAT=JSON","constellation":"spire","records":[{"OBJECT_NAME":"LEMUR-2-LEIA-PHILIP","OBJECT_ID":"2025-052AN","EPOCH":"2026-07-12T15:56:21.590592","CLASSIFICATION_TYPE":"U","MEAN_MOTION":14.97389132,"ECCENTRICITY":0.00050924,"INCLINATION":97.6812,"RA_OF_ASC_NODE":85.1833,"ARG_OF_PERICENTER":125.0201,"MEAN_ANOMALY":235.15,"EPHEMERIS_TYPE":0,"NORAD_CAT_ID":63246,"ELEMENT_SET_NO":999,"REV_AT_EPOCH":7248,"BSTAR":0.000056355217,"MEAN_MOTION_DOT":0.00000597,"MEAN_MOTION_DDOT":0},{"OBJECT_NAME":"LEMUR-2-LIA-MARTIN","OBJECT_ID":"2025-052AQ","EPOCH":"2026-07-13T03:03:21.983328","CLASSIFICATION_TYPE":"U","MEAN_MOTION":14.98021131,"ECCENTRICITY":0.00054022,"INCLINATION":97.6876,"RA_OF_ASC_NODE":86.1537,"ARG_OF_PERICENTER":95.0747,"MEAN_ANOMALY":265.1092,"EPHEMERIS_TYPE":0,"NORAD_CAT_ID":63248,"ELEMENT_SET_NO":999,"REV_AT_EPOCH":7256,"BSTAR":0.00025087482,"MEAN_MOTION_DOT":0.00002906,"MEAN_MOTION_DDOT":0},{"OBJECT_NAME":"LEMUR-2-DELOITTE-1","OBJECT_ID":"2025-052BB","EPOCH":"2026-07-12T16:57:30.590784","CLASSIFICATION_TYPE":"U","MEAN_MOTION":14.97770317,"ECCENTRICITY":0.00024509,"INCLINATION":97.6883,"RA_OF_ASC_NODE":86.0697,"ARG_OF_PERICENTER":67.7345,"MEAN_ANOMALY":292.4137,"EPHEMERIS_TYPE":0,"NORAD_CAT_ID":63259,"ELEMENT_SET_NO":999,"REV_AT_EPOCH":7251,"BSTAR":0.0001903792,"MEAN_MOTION_DOT":0.00002176,"MEAN_MOTION_DDOT":0},{"OBJECT_NAME":"LEMUR-2-EMERSONROSE","OBJECT_ID":"2025-052BD","EPOCH":"2026-07-13T02:58:10.201152","CLASSIFICATION_TYPE":"U","MEAN_MOTION":14.99279904,"ECCENTRICITY":0.0002783,"INCLINATION":97.6887,"RA_OF_ASC_NODE":87.0891,"ARG_OF_PERICENTER":64.4353,"MEAN_ANOMALY":295.7157,"EPHEMERIS_TYPE":0,"NORAD_CAT_ID":63261,"ELEMENT_SET_NO":999,"REV_AT_EPOCH":7262,"BSTAR":0.00025419905,"MEAN_MOTION_DOT":0.00003044,"MEAN_MOTION_DDOT":0},{"OBJECT_NAME":"LEMUR-2-MARACHE-FRAN","OBJECT_ID":"2025-052BE","EPOCH":"2026-07-12T16:20:37.711392","CLASSIFICATION_TYPE":"U","MEAN_MOTION":15.00306023,"ECCENTRICITY":0.00048952,"INCLINATION":97.6849,"RA_OF_ASC_NODE":87.0169,"ARG_OF_PERICENTER":264.0208,"MEAN_ANOMALY":96.0458,"EPHEMERIS_TYPE":0,"NORAD_CAT_ID":63262,"ELEMENT_SET_NO":999,"REV_AT_EPOCH":7258,"BSTAR":0.00015633726,"MEAN_MOTION_DOT":0.000019,"MEAN_MOTION_DDOT":0},{"OBJECT_NAME":"LEMUR-2-THEFALCONER","OBJECT_ID":"2025-052BG","EPOCH":"2026-07-13T04:54:21.930336","CLASSIFICATION_TYPE":"U","MEAN_MOTION":14.97559099,"ECCENTRICITY":0.00003597,"INCLINATION":97.6842,"RA_OF_ASC_NODE":86.1531,"ARG_OF_PERICENTER":346.8001,"MEAN_ANOMALY":13.3212,"EPHEMERIS_TYPE":0,"NORAD_CAT_ID":63264,"ELEMENT_SET_NO":999,"REV_AT_EPOCH":7258,"BSTAR":0.00011160905,"MEAN_MOTION_DOT":0.00001245,"MEAN_MOTION_DDOT":0},{"OBJECT_NAME":"LEMUR-2-UNTITLED-SC","OBJECT_ID":"2025-061A","EPOCH":"2026-07-12T20:55:53.594112","CLASSIFICATION_TYPE":"U","MEAN_MOTION":15.13638131,"ECCENTRICITY":0.00189969,"INCLINATION":97.5648,"RA_OF_ASC_NODE":169.0511,"ARG_OF_PERICENTER":170.8759,"MEAN_ANOMALY":189.2821,"EPHEMERIS_TYPE":0,"NORAD_CAT_ID":63351,"ELEMENT_SET_NO":999,"REV_AT_EPOCH":7147,"BSTAR":0.00013320891,"MEAN_MOTION_DOT":0.00002336,"MEAN_MOTION_DDOT":0},{"OBJECT_NAME":"LEMUR-2-ESPERANZA","OBJECT_ID":"2025-061B","EPOCH":"2026-07-13T05:51:44.524512","CLASSIFICATION_TYPE":"U","MEAN_MOTION":15.13745158,"ECCENTRICITY":0.00186421,"INCLINATION":97.5656,"RA_OF_ASC_NODE":169.5204,"ARG_OF_PERICENTER":168.8182,"MEAN_ANOMALY":191.3467,"EPHEMERIS_TYPE":0,"NORAD_CAT_ID":63352,"ELEMENT_SET_NO":999,"REV_AT_EPOCH":7153,"BSTAR":0.000089796873,"MEAN_MOTION_DOT":0.00001558,"MEAN_MOTION_DDOT":0},{"OBJECT_NAME":"LEMUR-2-KREMPEL-BRO2","OBJECT_ID":"2025-061C","EPOCH":"2026-07-12T22:24:02.531232","CLASSIFICATION_TYPE":"U","MEAN_MOTION":15.14170656,"ECCENTRICITY":0.00197403,"INCLINATION":97.5701,"RA_OF_ASC_NODE":169.7776,"ARG_OF_PERICENTER":162.8616,"MEAN_ANOMALY":197.3287,"EPHEMERIS_TYPE":0,"NORAD_CAT_ID":63353,"ELEMENT_SET_NO":999,"REV_AT_EPOCH":7150,"BSTAR":0.00012399488,"MEAN_MOTION_DOT":0.00002204,"MEAN_MOTION_DDOT":0},{"OBJECT_NAME":"LEMUR-2-THERMORAPTOR","OBJECT_ID":"2025-061D","EPOCH":"2026-07-12T21:56:13.316928","CLASSIFICATION_TYPE":"U","MEAN_MOTION":15.14253556,"ECCENTRICITY":0.00195191,"INCLINATION":97.5707,"RA_OF_ASC_NODE":169.839,"ARG_OF_PERICENTER":161.7454,"MEAN_ANOMALY":198.4482,"EPHEMERIS_TYPE":0,"NORAD_CAT_ID":63354,"ELEMENT_SET_NO":999,"REV_AT_EPOCH":7150,"BSTAR":0.00010599977,"MEAN_MOTION_DOT":0.00001879,"MEAN_MOTION_DDOT":0},{"OBJECT_NAME":"LEMUR-2-NEUROSPICY","OBJECT_ID":"2025-061E","EPOCH":"2026-07-12T21:12:34.843968","CLASSIFICATION_TYPE":"U","MEAN_MOTION":15.14371468,"ECCENTRICITY":0.00172346,"INCLINATION":97.5633,"RA_OF_ASC_NODE":169.4153,"ARG_OF_PERICENTER":164.6418,"MEAN_ANOMALY":195.534,"EPHEMERIS_TYPE":0,"NORAD_CAT_ID":63355,"ELEMENT_SET_NO":999,"REV_AT_EPOCH":7150,"BSTAR":0.000135776,"MEAN_MOTION_DOT":0.00002431,"MEAN_MOTION_DDOT":0},{"OBJECT_NAME":"LEMUR-2-TILLINFINITY","OBJECT_ID":"2025-061F","EPOCH":"2026-07-13T04:09:33.122592","CLASSIFICATION_TYPE":"U","MEAN_MOTION":15.14956079,"ECCENTRICITY":0.00188705,"INCLINATION":97.5621,"RA_OF_ASC_NODE":170.0118,"ARG_OF_PERICENTER":152.5222,"MEAN_ANOMALY":207.7012,"EPHEMERIS_TYPE":0,"NORAD_CAT_ID":63356,"ELEMENT_SET_NO":999,"REV_AT_EPOCH":7157,"BSTAR":0.00010403319,"MEAN_MOTION_DOT":0.0000188,"MEAN_MOTION_DDOT":0},{"OBJECT_NAME":"LEMUR-2-KREMPEL-BRO1","OBJECT_ID":"2025-061G","EPOCH":"2026-07-12T21:15:38.091456","CLASSIFICATION_TYPE":"U","MEAN_MOTION":15.14762625,"ECCENTRICITY":0.00194205,"INCLINATION":97.5621,"RA_OF_ASC_NODE":169.6347,"ARG_OF_PERICENTER":154.8112,"MEAN_ANOMALY":205.4072,"EPHEMERIS_TYPE":0,"NORAD_CAT_ID":63357,"ELEMENT_SET_NO":999,"REV_AT_EPOCH":7152,"BSTAR":0.00013262025,"MEAN_MOTION_DOT":0.00002402,"MEAN_MOTION_DDOT":0},{"OBJECT_NAME":"LEMUR-2-LANGER2SPACE","OBJECT_ID":"2025-061H","EPOCH":"2026-07-12T23:36:22.113792","CLASSIFICATION_TYPE":"U","MEAN_MOTION":15.14456891,"ECCENTRICITY":0.00171973,"INCLINATION":97.5626,"RA_OF_ASC_NODE":169.5355,"ARG_OF_PERICENTER":162.6831,"MEAN_ANOMALY":197.4991,"EPHEMERIS_TYPE":0,"NORAD_CAT_ID":63358,"ELEMENT_SET_NO":999,"REV_AT_EPOCH":7152,"BSTAR":0.00010343946,"MEAN_MOTION_DOT":0.00001841,"MEAN_MOTION_DDOT":0},{"OBJECT_NAME":"LEMUR-2-BALTO","OBJECT_ID":"2025-052BH","EPOCH":"2026-07-12T15:58:13.553760","CLASSIFICATION_TYPE":"U","MEAN_MOTION":15.00350179,"ECCENTRICITY":0.00052354,"INCLINATION":97.6934,"RA_OF_ASC_NODE":86.9871,"ARG_OF_PERICENTER":338.251,"MEAN_ANOMALY":21.8491,"EPHEMERIS_TYPE":0,"NORAD_CAT_ID":63395,"ELEMENT_SET_NO":999,"REV_AT_EPOCH":7258,"BSTAR":0.00023213036,"MEAN_MOTION_DOT":0.00002854,"MEAN_MOTION_DDOT":0},{"OBJECT_NAME":"LEMUR-2-KRISH","OBJECT_ID":"2025-135AK","EPOCH":"2026-07-12T19:40:53.081184","CLASSIFICATION_TYPE":"U","MEAN_MOTION":14.96440074,"ECCENTRICITY":0.000155,"INCLINATION":97.7772,"RA_OF_ASC_NODE":308.5248,"ARG_OF_PERICENTER":96.3238,"MEAN_ANOMALY":263.816,"EPHEMERIS_TYPE":0,"NORAD_CAT_ID":64561,"ELEMENT_SET_NO":999,"REV_AT_EPOCH":5775,"BSTAR":0.00022845294,"MEAN_MOTION_DOT":0.00002533,"MEAN_MOTION_DDOT":0}]}
