LEMUR-2-LEIA-PHILIP     
1 63246U 25052AN  26193.66413878  .00000597  00000+0  56355-4 0  9997
2 63246  97.6812  85.1833 0005092 125.0201 235.1500 14.97389132 72485
LEMUR-2-LIA-MARTIN      
1 63248U 25052AQ  26194.12733777  .00002906  00000+0  25087-3 0  9997
2 63248  97.6876  86.1537 0005402  95.0747 265.1092 14.98021131 72566
LEMUR-2-DELOITTE-1      
1 63259U 25052BB  26193.70660406  .00002176  00000+0  19038-3 0  9998
2 63259  97.6883  86.0697 0002450  67.7345 292.4137 14.97770317 72516
LEMUR-2-EMERSONROSE     
1 63261U 25052BD  26194.12372918  .00003044  00000+0  25420-3 0  9993
2 63261  97.6887  87.0891 0002783  64.4353 295.7157 14.99279904 72620
LEMUR-2-MARACHE-FRAN    
1 63262U 25052BE  26193.68099203  .00001900  00000+0  15634-3 0  9992
2 63262  97.6849  87.0169 0004895 264.0208  96.0458 15.00306023 72587
LEMUR-2-THEFALCONER     
1 63264U 25052BG  26194.20442049  .00001245  00000+0  11161-3 0  9996
2 63264  97.6842  86.1531 0000359 346.8001  13.3212 14.97559099 72584
LEMUR-2-UNTITLED-SC     
1 63351U 25061A   26193.87214808  .00002336  00000+0  13321-3 0  9997
2 63351  97.5648 169.0511 0018996 170.8759 189.2821 15.13638131 71474
LEMUR-2-ESPERANZA       
1 63352U 25061B   26194.24426533  .00001558  00000+0  89797-4 0  9996
2 63352  97.5656 169.5204 0018642 168.8182 191.3467 15.13745158 71538
LEMUR-2-KREMPEL-BRO2    
1 63353U 25061C   26193.93336263  .00002204  00000+0  12399-3 0  9994
2 63353  97.5701 169.7776 0019740 162.8616 197.3287 15.14170656 71501
LEMUR-2-THERMORAPTOR    
1 63354U 25061D   26193.91404302  .00001879  00000+0  10600-3 0  9993
2 63354  97.5707 169.8390 0019519 161.7454 198.4482 15.14253556 71503
LEMUR-2-NEUROSPICY      
1 63355U 25061E   26193.88373662  .00002431  00000+0  13578-3 0  9996
2 63355  97.5633 169.4153 0017234 164.6418 195.5340 15.14371468 71503
LEMUR-2-TILLINFINITY    
1 63356U 25061F   26194.17330003  .00001880  00000+0  10403-3 0  9993
2 63356  97.5621 170.0118 0018870 152.5222 207.7012 15.14956079 71572
LEMUR-2-KREMPEL-BRO1    
1 63357U 25061G   26193.88585754  .00002402  00000+0  13262-3 0  9993
2 63357  97.5621 169.6347 0019420 154.8112 205.4072 15.14762625 71524
LEMUR-2-LANGER2SPACE    
1 63358U 25061H   26193.98358928  .00001841  00000+0  10344-3 0  9990
2 63358  97.5626 169.5355 0017197 162.6831 197.4991 15.14456891 71527
LEMUR-2-BALTO           
1 63395U 25052BH  26193.66543465  .00002854  00000+0  23213-3 0  9992
2 63395  97.6934  86.9871 0005235 338.2510  21.8491 15.00350179 72580
LEMUR-2-KRISH           
1 64561U 25135AK  26193.82005881  .00002533  00000+0  22845-3 0  9997
2 64561  97.7772 308.5248 0001550  96.3238 263.8160 14.96440074 57754
